[{"name":"INSAT-3DS","l1":"1 58990U 24033A   26183.38496355 -.00000144  00000+0  00000+0 0  9994","l2":"2 58990   0.0716  96.8706 0001431 355.3676  48.8097  1.00269425 47227","cat":"geostationary"},{"name":"GOES 19","l1":"1 60133U 24119A   26183.56768633 -.00000238  00000+0  00000+0 0  9996","l2":"2 60133   0.0126  77.9489 0000538  80.1000 251.7332  1.00271173  7117","cat":"geostationary"},{"name":"MTG-S1","l1":"1 64723U 25143A   26183.72509264  .00000003  00000+0  00000+0 0  9993","l2":"2 64723   0.5916 342.2144 0002957 262.9947 296.1264  1.00272109  3574","cat":"geostationary"},{"name":"TIANMU-1 21","l1":"1 58662U 23208C   26183.76045984  .00010425  00000+0  30576-3 0  9990","l2":"2 58662  97.4525 303.5427 0005769 254.8896 105.1709 15.35355461139952","cat":"science"},{"name":"TIANMU-1 22","l1":"1 58663U 23208D   26183.75723877  .00008035  00000+0  26855-3 0  9993","l2":"2 58663  97.4520 300.0621 0002178 287.0394  73.0608 15.31275855139717","cat":"science"},{"name":"TIANMU-1 15","l1":"1 58700U 24004A   26182.84348373  .00008429  00000+0  32265-3 0  9992","l2":"2 58700  97.4664   9.0340 0005689 288.6642  71.3979 15.26798099138013","cat":"science"},{"name":"TIANMU-1 16","l1":"1 58701U 24004B   26183.75132808  .00006023  00000+0  23072-3 0  9992","l2":"2 58701  97.4613   9.1654 0004488 305.4769  54.6050 15.26906876138154","cat":"science"},{"name":"TIANMU-1 17","l1":"1 58702U 24004C   26183.73679494  .00006270  00000+0  24007-3 0  9991","l2":"2 58702  97.4641   9.6415 0004093 313.5589  46.5310 15.26905161138142","cat":"science"},{"name":"TIANMU-1 18","l1":"1 58703U 24004D   26183.77773632  .00005976  00000+0  22950-3 0  9992","l2":"2 58703  97.4658   9.9438 0003410 287.6612  72.4254 15.26824147138159","cat":"science"},{"name":"METEOR-M2 4","l1":"1 59051U 24039A   26183.79935666  .00000018  00000+0  27558-4 0  9998","l2":"2 59051  98.7025 142.9016 0008036 119.7013 240.4966 14.22431103121483","cat":"science"},{"name":"METOP-SGA1","l1":"1 65159U 25172A   26183.64337602  .00000065  00000+0  51184-4 0  9997","l2":"2 65159  98.6636 243.0440 0007790   9.5325 350.5998 14.19817616 45989","cat":"science"},{"name":"FENGYUN 3H","l1":"1 65815U 25219A   26183.82547603  .00000062  00000+0  49611-4 0  9991","l2":"2 65815  98.6770 124.2907 0001387  65.8877 294.2444 14.19923114 39601","cat":"science"}]